IRIDIUM 921             
1 24873U 97034E   24124.55273892  .00021626  00000+0  61113-3 0  9992
2 24873  86.3791 310.1746 0005267  75.6974 284.4863 15.36209823468327
IRIDIUM 26              
1 24903U 97043A   24124.53475661  .00000588  00000+0  19439-3 0  9990
2 24903  86.3914 282.4987 0002184  86.8541 273.2905 14.36320029397926
IRIDIUM 22              
1 24907U 97043E   24124.69533833  .00000574  00000+0  19408-3 0  9998
2 24907  86.3916 285.6353 0002141  92.8860 267.2581 14.35210542398019
DUMMY MASS 1            
1 24925U 97048A   24124.55341168  .00000551  00000+0  59648-4 0  9992
2 24925  86.3324 324.6268 0008035 142.1729 218.0062 14.86167901444276
DUMMY MASS 2            
1 24926U 97048B   24124.58278161  .00000541  00000+0  58835-4 0  9994
2 24926  86.3326 326.1486 0008404 153.0956 207.0706 14.85926710444061
IRIDIUM 29              
1 24944U 97051A   24124.57270130  .00000503  00000+0  16768-3 0  9991
2 24944  86.3924 315.6228 0002281  95.4015 264.7442 14.35662120394488
IRIDIUM 33              
1 24946U 97051C   24124.62752348  .00000368  00000+0  12419-3 0  9993
2 24946  86.3837 314.8540 0007278 351.0606   9.0459 14.34332035394025
IRIDIUM 28              
1 24948U 97051E   24124.60615627  .00000528  00000+0  17286-3 0  9996
2 24948  86.3926 313.3577 0002130  78.5419 281.6017 14.36612243395028
